#dP2018  2 11  0  0  0.00000000      96 __u+U IGS08 FIT  IAC
## 1988      0.00000000   900.00000000 58160 0.0000000000000
+   87   C01C02C03C04C05C06C07C08C09C10C11C12C13C14E01E02E03
+        E04E05E07E08E09E11E12E14E18E19E24E26E30G01G02G03G05
+        G06G07G08G09G10G11G12G13G14G15G16G17G19G20G21G22G23
+        G24G25G26G27G28G29G30G31G32J01J02J03R01R02R03R04R05
+        R06R07R08R09R10R11R13R14R15R16R17R18R19R20R21R22R23
+        R24R26  0  0  0  0  0  0  0  0  0  0  0  0  0  0  0
++        12 12 12 12 12  8  8  9  8  8  7  7  8  8  7  7  7
++         7  7  7  7  7  7  7  7  7  7  7  7  7  3  3  3  3
++         3  3  3  3  3  3  3  3  3  3  3  3  3  3  3  3  3
++         3  3  3  3  3  3  3  3  3 11 12 12  5  5  5  5  5
++         5  5  7  5  5  5  5  5  5  5  5  5  5  5  7  5  5
++         5  8  0  0  0  0  0  0  0  0  0  0  0  0  0  0  0
%c M  cc GPS ccc cccc cccc cccc cccc ccccc ccccc ccccc ccccc
%c cc cc ccc ccc cccc cccc cccc cccc ccccc ccccc ccccc ccccc
%f  1.2500000  1.025000000  0.00000000000  0.000000000000000
%f  0.0000000  0.000000000  0.00000000000  0.000000000000000
%i    0    0    0    0      0      0      0      0         0
%i    0    0    0    0      0      0      0      0         0
/* INFORMATION & ANALYSIS CENTER (IAC)            FINAL DATA
/* S/V CLOCKS ARE ALIGNED TO GPS & GLONASS TIME RESPECTIVELY
/* USING THE BROADCAST EPHEMERIS                            
/* PCV:IGS14_1984 OL/AL:FES2004  NONE     YN ORB:CoN CLK:CoN
*  2018 02 11 20 45  0.00000000
PC01 -32292.659101  27090.705397   -659.062650    355.113857
PC02   4469.244125  41918.017059   1183.054636   -219.679686
PC03 -14804.178546  39507.638636    272.101852   -109.134810
PC04 -39604.054280  14408.652485   -279.315961   -115.383932
PC05  21938.251484  35998.755874   1534.315433   -148.643696
PC06 -13781.831331  38438.535960  11393.332790   -680.378944
PC07 -11176.198655  23062.010252 -33334.400329   -308.023572
PC08 -23755.438929  25672.119406  23434.086565    169.868468
PC09  -5699.704849  41844.213270  -2814.077058   -412.882108
PC10   3802.482493  29755.035019 -29392.895605     -9.568959
PC11  -2377.143591 -18031.168691 -21125.527719   -387.959393
PC12  14444.797043 -22820.868874  -7149.635130    379.956845
PC13  -9144.988664  26902.364754  31102.119301   -199.586264
PC14  -8992.032294 -26375.551252    676.900747    203.785174
PE01  -9604.083152 -20630.376989  18926.826372   -274.489523
PE02   9638.648226  20639.072863 -18911.007655      4.429315
PE03   1991.765046  29157.200115  -4672.184057      1.946475
PE04 -13460.224522 -17162.236136  20008.003908     25.922238
PE05 -10680.555331  24109.165618  13448.503001    323.831819
PE07  17076.029148  -4957.076222 -23662.236897     85.882487
PE08  13501.707858  17050.951387 -20075.533417   6643.674540
PE09 -16892.091697   5043.661334  23778.690720   6877.603980
PE11 -27254.486644   8518.340521  -7829.955134   1849.537313
PE12 -18444.945039  -7035.049868 -22049.410562   3486.136403
PE14 -15341.386371  24271.955949   -443.635337   6632.612142
PE18   2797.587344 -25241.928702 -13575.965210   6434.805672
PE19   -797.958305 -29446.744853   2855.610240     19.315502
PE24 -24553.006001  -3102.966240 -16231.342564   6867.473711
PE26  20231.370638 -18813.123796 -10623.657534   6281.145650
PE30  24243.631203  16899.334114  -1830.263396   6084.819468
PG01 -11409.799171 -13418.503079 -20102.506692    -28.305408
PG02 -13307.186179  14399.002944  18342.946762    202.951395
PG03 -12632.271063 -23275.521553  -2370.365859      7.425116
PG05  -2987.083846  19080.489743  18042.459445    -14.564053
PG06 -23689.093116   7445.656319   9480.255108    414.582217
PG07 -24225.154314  -6359.623440   9687.464818    238.183324
PG08   2873.248115 -23480.016310 -11885.685979    -90.859076
PG09 -13696.917282  -6987.812516  21618.975920    500.333195
PG10  17258.000196    939.234736 -20175.612798    158.678910
PG11  -7219.833218 -15059.362826 -21214.459359   -736.069037
PG12   9923.768827  24378.874381  -4473.064815    350.799115
PG13 -11543.262765  23320.066229  -5471.295446    -95.585396
PG14  18058.393648 -17123.505270  -8756.429465    -93.807101
PG15    102.021696  23367.798293 -12464.807544   -357.052565
PG16   3882.020743 -18579.920895  18248.946932     32.436115
PG17 -18325.732096   9924.870652 -16003.462071   -123.954967
PG19 -18904.543608  15685.056869 -10639.588709   -457.719354
PG20  13701.690042  22389.000331   4080.166675    500.659078
PG21  25176.486473   3974.695406   8319.991844   -431.498844
PG22  -8357.047679 -23474.097537  -8929.872800   -288.316391
PG23  -5910.216322 -18078.314477  18630.364531   -218.972852
PG24   8205.163374  14544.813529 -20817.450053    -45.939790
PG25  17585.870524  18513.328512   7579.037995   -537.202610
PG26  11535.543132 -10204.961041  21629.096066   -253.992027
PG27  12225.598172 -23425.943407    -46.533493    366.740437
PG28 -17053.715156  -5940.297547 -18834.216882    687.928058
PG29  10091.914367  11344.979305  21783.662710    497.798869
PG30 -26590.853334  -1236.967641   1074.106635    104.431105
PG31  23473.570051  -7439.984814  10528.197953    142.398388
PG32  18252.533856 -10511.119164 -16112.397235   -532.421148
PJ01 -25145.232813  23966.254260  29004.668423 999999.999999
PJ02 -30172.390086  14928.496810 -21029.696169 999999.999999
PJ03 -22900.727249  32707.955371  -8827.374120 999999.999999
PR01  11242.739625  11252.674133 -19938.538462     21.948946
PR02   9073.296409 -10079.493065 -21561.223354    294.759937
PR03   1700.818452 -23578.771141  -9497.165065    123.876533
PR04  -6892.575304 -23049.902801   8466.091545    249.549731
PR05 -11411.273514  -9535.730363  20714.900093   -246.294817
PR06  -8813.430225  11185.540281  21155.133960    126.847083
PR07  -1556.924885  23766.218394   9208.377058    -29.854597
PR08   6554.119143  23381.698429  -7768.129632     38.362185
PR09 -18340.344266   1193.168626 -17705.831747     48.172842
PR10  -2002.845956  10688.465937 -23091.580249     18.041597
PR11  15485.317086  14278.408875 -14349.349997    -21.603549
PR13  17708.657702  -1807.923259  18250.834588     -7.386296
PR14   2300.503124 -10830.489137  22989.663186     24.618237
PR15 -12499.569748 -14092.674497  17147.481842     -6.309190
PR16 -23746.715320  -8958.931079  -1839.987819     85.383942
PR17  13773.629087 -17423.636853 -12558.124334    108.437545
PR18  -1254.920660 -11896.923168 -22498.913381    184.478837
PR19 -15860.513805    182.020520 -19970.040119    -44.304831
PR20 -21612.717647  12784.141774  -4625.703140   -326.840568
PR21 -13549.660436  17385.318881  12827.531197     29.482206
PR22   2769.359216  10918.176015  22909.453907    -18.005687
PR23  17844.192467  -2994.269921  17977.084959    135.701474
PR24  21286.702631 -13466.956964   3951.088875   -162.333285
PR26 -21352.676668  13069.682424  -4816.895768     -0.928626
EOF
